{
  "type": "FeatureCollection",
  "features": [
    {
      "type": "Feature",
      "properties": {
        "norad_id": 41866,
        "name": "GOES 16",
        "group": "weather",
        "lat": 0.0031279030538735324,
        "lon": -99.45638654581194,
        "alt_km": 35772.55950720477,
        "timestamp": "2025-12-13T18:50:04.071246+00:00",
        "meta_object_name": "GOES 16",
        "meta_object_id": "2016-071A",
        "meta_epoch": "2025-12-13T05:15:52.570944",
        "meta_mean_motion": 1.00271588,
        "meta_eccentricity": 0.00032114,
        "meta_inclination": 0.0645,
        "meta_ra_of_asc_node": 105.1351,
        "meta_arg_of_pericenter": 158.0077,
        "meta_mean_anomaly": 153.3057,
        "meta_ephemeris_type": 0,
        "meta_classification_type": "U",
        "meta_norad_cat_id": 41866,
        "meta_element_set_no": 999,
        "meta_rev_at_epoch": 3323,
        "meta_bstar": 0,
        "meta_mean_motion_dot": -7.7e-07,
        "meta_mean_motion_ddot": 0,
        "tle_line1": "1 41866U 16071A   25347.21935846 -.00000077  00000+0  00000+0 0  9992",
        "tle_line2": "2 41866   0.0645 105.1351 0003211 158.0077 153.3057  1.00271588 33230"
      },
      "geometry": {
        "type": "Point",
        "coordinates": [
          -99.45638654581194,
          0.0031279030538735324
        ]
      }
    },
    {
      "type": "Feature",
      "properties": {
        "norad_id": 41882,
        "name": "FENGYUN 4A",
        "group": "weather",
        "lat": 1.3554243666608872,
        "lon": 128.974833772908,
        "alt_km": 35790.02546121147,
        "timestamp": "2025-12-13T18:50:04.071258+00:00",
        "meta_object_name": "FENGYUN 4A",
        "meta_object_id": "2016-077A",
        "meta_epoch": "2025-12-12T22:37:46.187616",
        "meta_mean_motion": 1.00269597,
        "meta_eccentricity": 0.00048299,
        "meta_inclination": 1.85,
        "meta_ra_of_asc_node": 82.3882,
        "meta_arg_of_pericenter": 145.9325,
        "meta_mean_anomaly": 316.8328,
        "meta_ephemeris_type": 0,
        "meta_classification_type": "U",
        "meta_norad_cat_id": 41882,
        "meta_element_set_no": 999,
        "meta_rev_at_epoch": 3306,
        "meta_bstar": 0,
        "meta_mean_motion_dot": -3.44e-06,
        "meta_mean_motion_ddot": 0,
        "tle_line1": "1 41882U 16077A   25346.94289569 -.00000344  00000+0  00000+0 0  9996",
        "tle_line2": "2 41882   1.8500  82.3882 0004829 145.9325 316.8328  1.00269597 33064"
      },
      "geometry": {
        "type": "Point",
        "coordinates": [
          128.974833772908,
          1.3554243666608872
        ]
      }
    },
    {
      "type": "Feature",
      "properties": {
        "norad_id": 41884,
        "name": "CYGFM05",
        "group": "weather",
        "lat": 33.490472776490854,
        "lon": 111.56668096985152,
        "alt_km": 420.5322468001759,
        "timestamp": "2025-12-13T18:50:04.071271+00:00",
        "meta_object_name": "CYGFM05",
        "meta_object_id": "2016-078A",
        "meta_epoch": "2025-12-13T06:07:45.147360",
        "meta_mean_motion": 15.47665037,
        "meta_eccentricity": 0.00101459,
        "meta_inclination": 34.9603,
        "meta_ra_of_asc_node": 43.7625,
        "meta_arg_of_pericenter": 187.9762,
        "meta_mean_anomaly": 172.08,
        "meta_ephemeris_type": 0,
        "meta_classification_type": "U",
        "meta_norad_cat_id": 41884,
        "meta_element_set_no": 999,
        "meta_rev_at_epoch": 49984,
        "meta_bstar": 0.00054479677,
        "meta_mean_motion_dot": 0.00029126,
        "meta_mean_motion_ddot": 0,
        "tle_line1": "1 41884U 16078A   25347.25538365  .00029126  00000+0  54480-3 0  9998",
        "tle_line2": "2 41884  34.9603  43.7625 0010145 187.9762 172.0800 15.47665037499846"
      },
      "geometry": {
        "type": "Point",
        "coordinates": [
          111.56668096985152,
          33.490472776490854
        ]
      }
    },
    {
      "type": "Feature",
      "properties": {
        "norad_id": 41885,
        "name": "CYGFM04",
        "group": "weather",
        "lat": -19.5276004877869,
        "lon": -15.48500104301848,
        "alt_km": 418.1107794483605,
        "timestamp": "2025-12-13T18:50:04.071282+00:00",
        "meta_object_name": "CYGFM04",
        "meta_object_id": "2016-078B",
        "meta_epoch": "2025-12-13T06:37:30.522144",
        "meta_mean_motion": 15.50389934,
        "meta_eccentricity": 0.00095529,
        "meta_inclination": 34.9357,
        "meta_ra_of_asc_node": 18.3891,
        "meta_arg_of_pericenter": 215.1635,
        "meta_mean_anomaly": 144.8457,
        "meta_ephemeris_type": 0,
        "meta_classification_type": "U",
        "meta_norad_cat_id": 41885,
        "meta_element_set_no": 999,
        "meta_rev_at_epoch": 50002,
        "meta_bstar": 0.00056607475,
        "meta_mean_motion_dot": 0.00033335,
        "meta_mean_motion_ddot": 0,
        "tle_line1": "1 41885U 16078B   25347.27604771  .00033335  00000+0  56607-3 0  9996",
        "tle_line2": "2 41885  34.9357  18.3891 0009552 215.1635 144.8457 15.50389934500020"
      },
      "geometry": {
        "type": "Point",
        "coordinates": [
          -15.48500104301848,
          -19.5276004877869
        ]
      }
    },
    {
      "type": "Feature",
      "properties": {
        "norad_id": 41886,
        "name": "CYGFM02",
        "group": "weather",
        "lat": -9.90907179154332,
        "lon": -1.124431423293293,
        "alt_km": 415.6182141792897,
        "timestamp": "2025-12-13T18:50:04.071293+00:00",
        "meta_object_name": "CYGFM02",
        "meta_object_id": "2016-078C",
        "meta_epoch": "2025-12-13T06:33:27.876384",
        "meta_mean_motion": 15.51771085,
        "meta_eccentricity": 0.00112018,
        "meta_inclination": 34.9445,
        "meta_ra_of_asc_node": 16.7266,
        "meta_arg_of_pericenter": 215.0334,
        "meta_mean_anomaly": 144.9653,
        "meta_ephemeris_type": 0,
        "meta_classification_type": "U",
        "meta_norad_cat_id": 41886,
        "meta_element_set_no": 999,
        "meta_rev_at_epoch": 50015,
        "meta_bstar": 0.00058830143,
        "meta_mean_motion_dot": 0.00036444,
        "meta_mean_motion_ddot": 0,
        "tle_line1": "1 41886U 16078C   25347.27323931  .00036444  00000+0  58830-3 0  9997",
        "tle_line2": "2 41886  34.9445  16.7266 0011201 215.0334 144.9653 15.51771085500152"
      },
      "geometry": {
        "type": "Point",
        "coordinates": [
          -1.124431423293293,
          -9.90907179154332
        ]
      }
    },
    {
      "type": "Feature",
      "properties": {
        "norad_id": 41887,
        "name": "CYGFM01",
        "group": "weather",
        "lat": 29.413852996255734,
        "lon": 168.79948013056185,
        "alt_km": 413.3210823792142,
        "timestamp": "2025-12-13T18:50:04.071304+00:00",
        "meta_object_name": "CYGFM01",
        "meta_object_id": "2016-078D",
        "meta_epoch": "2025-12-13T05:56:04.457184",
        "meta_mean_motion": 15.4824451,
        "meta_eccentricity": 0.00097332,
        "meta_inclination": 34.9433,
        "meta_ra_of_asc_node": 46.1619,
        "meta_arg_of_pericenter": 179.9881,
        "meta_mean_anomaly": 180.0842,
        "meta_ephemeris_type": 0,
        "meta_classification_type": "U",
        "meta_norad_cat_id": 41887,
        "meta_element_set_no": 999,
        "meta_rev_at_epoch": 49978,
        "meta_bstar": 0.00055476046,
        "meta_mean_motion_dot": 0.00030269,
        "meta_mean_motion_ddot": 0,
        "tle_line1": "1 41887U 16078D   25347.24727381  .00030269  00000+0  55476-3 0  9994",
        "tle_line2": "2 41887  34.9433  46.1619 0009733 179.9881 180.0842 15.48244510499782"
      },
      "geometry": {
        "type": "Point",
        "coordinates": [
          168.79948013056185,
          29.413852996255734
        ]
      }
    },
    {
      "type": "Feature",
      "properties": {
        "norad_id": 41888,
        "name": "CYGFM08",
        "group": "weather",
        "lat": 3.466677344575237,
        "lon": -159.35013477911758,
        "alt_km": 410.1742412057529,
        "timestamp": "2025-12-13T18:50:04.071314+00:00",
        "meta_object_name": "CYGFM08",
        "meta_object_id": "2016-078E",
        "meta_epoch": "2025-12-13T05:43:01.029504",
        "meta_mean_motion": 15.49449618,
        "meta_eccentricity": 0.00116383,
        "meta_inclination": 34.9466,
        "meta_ra_of_asc_node": 29.2071,
        "meta_arg_of_pericenter": 203.5468,
        "meta_mean_anomaly": 156.4723,
        "meta_ephemeris_type": 0,
        "meta_classification_type": "U",
        "meta_norad_cat_id": 41888,
        "meta_element_set_no": 999,
        "meta_rev_at_epoch": 50001,
        "meta_bstar": 0.0005552213,
        "meta_mean_motion_dot": 0.00031641,
        "meta_mean_motion_ddot": 0,
        "tle_line1": "1 41888U 16078E   25347.23820636  .00031641  00000+0  55522-3 0  9998",
        "tle_line2": "2 41888  34.9466  29.2071 0011638 203.5468 156.4723 15.49449618500016"
      },
      "geometry": {
        "type": "Point",
        "coordinates": [
          -159.35013477911758,
          3.466677344575237
        ]
      }
    }
  ]
}